OBJECT_NAME,OBJECT_ID,EPOCH,MEAN_MOTION,ECCENTRICITY,INCLINATION,RA_OF_ASC_NODE,ARG_OF_PERICENTER,MEAN_ANOMALY,EPHEMERIS_TYPE,CLASSIFICATION_TYPE,NORAD_CAT_ID,ELEMENT_SET_NO,REV_AT_EPOCH,BSTAR,MEAN_MOTION_DOT,MEAN_MOTION_DDOT
TIANYAN 01,2019-093C,2026-05-17T14:51:08.181216,14.86463797,.00133891,97.7542,210.5956,181.3779,178.7403,0,U,44881,999,34687,.84982131E-4,.699E-5,0
TIANYAN 02,2019-093D,2026-05-17T14:27:30.192192,15.04809403,.00151205,97.7928,232.1115,125.4497,234.8143,0,U,44882,999,34801,.3579329E-3,.5002E-4,0
CBERS 4A,2019-093E,2026-05-17T15:08:52.572192,14.81655283,.00005368,97.7513,205.8480,326.2142,33.9037,0,U,44883,999,34655,.15886461E-3,.1199E-4,0
WEILAI 1R,2019-093F,2026-05-17T13:53:50.028000,15.00357065,.00159071,97.7841,227.4315,130.2313,230.0304,0,U,44884,999,34783,.38244763E-3,.4752E-4,0
FLORIPASAT-1,2019-093G,2026-05-17T14:45:42.897312,15.03513851,.00121926,97.7897,231.6314,169.3116,190.8371,0,U,44885,999,34805,.46898617E-3,.6346E-4,0
SHUNTIAN,2019-093H,2026-05-17T14:55:47.057952,14.94992131,.00120959,97.8009,225.9442,159.9533,200.2165,0,U,44886,999,34761,.13948142E-3,.1468E-4,0
ELEKTRO-L 3,2019-095A,2026-05-17T11:18:23.014080,1.00270871,.00009458,0.1768,79.8882,319.9819,80.8471,0,U,44903,999,2340,0,-.89E-6,0
GONETS-M 14,2019-096A,2026-05-17T14:52:32.376288,12.42868795,.00122992,82.5202,103.5902,216.4316,143.5928,0,U,44905,999,28988,-.47444862E-3,-.56E-6,0
GONETS-M 15,2019-096B,2026-05-17T13:39:00.584928,12.42870044,.00139535,82.5221,104.0784,241.6663,118.3010,0,U,44906,999,28984,-.56769648E-3,-.69E-6,0
GONETS-M 16,2019-096C,2026-05-17T14:17:31.640640,12.42890422,.0009764,82.5168,103.0286,288.9752,71.0270,0,U,44907,999,28983,-.12337549E-2,-.161E-5,0
RS-44 & BREEZE-KM R/B,2019-096E,2026-05-17T08:35:29.476320,12.79748240,.02167974,82.5235,0.1947,216.2444,142.3806,0,U,44909,999,29840,.78423011E-4,.3E-6,0
JILIN-1 KUANFU 01,2020-003A,2026-05-17T13:12:41.567040,15.10536101,.00109126,97.5036,212.1065,54.5743,305.6504,0,U,45016,999,35070,.15840509E-3,.2551E-4,0
XINGYUN-2 01,2020-028A,2026-05-17T15:04:16.368672,15.11668524,.00078665,97.4861,130.6390,319.6908,40.3738,0,U,45602,999,33022,.88923738E-4,.1449E-4,0
XINGYUN-2 02,2020-028B,2026-05-17T14:25:46.723872,15.11404429,.00118447,97.5076,144.1330,26.0532,334.1292,0,U,45603,999,33021,.99143805E-4,.1612E-4,0
HAIYANG-1D,2020-036A,2026-05-17T14:59:13.553952,14.34161350,.00015879,98.4548,79.9707,223.7100,136.3959,0,U,45721,999,31059,-.14292904E-4,-.83E-6,0
M2 PATHFINDER,2020-037E,2026-05-17T12:30:42.962112,15.04532011,.00099273,97.8162,328.4106,254.3305,105.6826,0,U,45727,999,32088,.9118904E-4,.1215E-4,0
GAOFEN DUOMO (GFDM),2020-042A,2026-05-17T15:37:23.899584,14.76833199,.00112132,97.7768,198.6451,164.0543,196.1022,0,U,45856,999,31650,.64397359E-4,.403E-5,0
ZIYUAN 3-03 (ZY 3-03),2020-051A,2026-05-17T14:24:53.067744,15.21502732,.00069285,97.2852,206.3115,65.0381,295.1575,0,U,45939,999,32269,.15886127E-3,.3509E-4,0
NEMO-HD,2020-061F,2026-05-17T14:37:52.987584,15.43933458,.00025575,97.1936,199.8831,117.6456,242.5052,0,U,46277,999,31726,.17161572E-3,.7718E-4,0
NAPA-1,2020-061BA,2026-05-17T14:48:54.647424,15.64054509,.00018462,97.2487,210.8847,140.0809,220.0587,0,U,46320,999,31695,.42653496E-3,.40305E-3,0
JILIN-1 GAOFEN 3E,2020-065D,2026-05-17T14:17:11.453280,15.60081143,.00099003,97.2282,189.5757,265.7162,94.2964,0,U,46457,999,31498,.3898613E-3,.3162E-3,0
JILIN-1 GAOFEN 3F,2020-065E,2026-05-17T13:43:34.211136,15.57843594,.00115475,97.2238,187.0212,254.3780,105.6202,0,U,46458,999,31493,.37517861E-3,.2797E-3,0
JILIN-1 GAOFEN 3G,2020-065F,2026-05-17T14:06:16.326144,15.65991089,.0012557,97.2312,193.3853,157.5705,202.6107,0,U,46459,999,31514,.45825124E-3,.46988E-3,0
JILIN-1 GAOFEN 3H,2020-065G,2026-05-17T13:34:51.752928,15.63460933,.00088535,97.2256,189.8523,106.3646,253.8587,0,U,46460,999,31509,.45265131E-3,.41881E-3,0
HAIYANG-2C,2020-066A,2026-05-17T14:02:31.197120,13.83371972,.00100138,65.9972,291.4758,239.9012,120.1064,0,U,46469,999,28526,.19042023E-4,-.6E-6,0
HJ-2A,2020-067A,2026-05-17T14:28:00.761376,14.76571374,.00038804,97.8834,216.6955,28.4775,331.6647,0,U,46478,999,30374,.13794351E-3,.913E-5,0
HJ-2B,2020-067B,2026-05-17T15:20:16.111104,14.76514598,.00013146,97.8897,217.7299,76.2877,283.8479,0,U,46479,999,30375,.65498233E-4,.407E-5,0
