TIANYAN 01              
1 44881U 19093C   26137.61884469  .00000699  00000+0  84982-4 0  9990
2 44881  97.7542 210.5956 0013389 181.3779 178.7403 14.86463797346872
TIANYAN 02              
1 44882U 19093D   26137.60243278  .00005002  00000+0  35793-3 0  9995
2 44882  97.7928 232.1115 0015120 125.4497 234.8143 15.04809403348011
CBERS 4A                
1 44883U 19093E   26137.63116403  .00001199  00000+0  15886-3 0  9992
2 44883  97.7513 205.8480 0000536 326.2142  33.9037 14.81655283346553
WEILAI 1R               
1 44884U 19093F   26137.57905125  .00004752  00000+0  38245-3 0  9995
2 44884  97.7841 227.4315 0015907 130.2313 230.0304 15.00357065347834
FLORIPASAT-1            
1 44885U 19093G   26137.61507983  .00006346  00000+0  46899-3 0  9996
2 44885  97.7897 231.6314 0012192 169.3116 190.8371 15.03513851348051
SHUNTIAN                
1 44886U 19093H   26137.62207243  .00001468  00000+0  13948-3 0  9993
2 44886  97.8009 225.9442 0012095 159.9533 200.2165 14.94992131347615
ELEKTRO-L 3             
1 44903U 19095A   26137.47109970 -.00000089  00000+0  00000+0 0  9996
2 44903   0.1768  79.8882 0000945 319.9819  80.8471  1.00270871 23407
GONETS-M 14             
1 44905U 19096A   26137.61981917 -.00000056  00000+0 -47445-3 0  9997
2 44905  82.5202 103.5902 0012299 216.4316 143.5928 12.42868795289888
GONETS-M 15             
1 44906U 19096B   26137.56875677 -.00000069  00000+0 -56770-3 0  9992
2 44906  82.5221 104.0784 0013953 241.6663 118.3010 12.42870044289845
GONETS-M 16             
1 44907U 19096C   26137.59550510 -.00000161  00000+0 -12338-2 0  9996
2 44907  82.5168 103.0286 0009764 288.9752  71.0270 12.42890422289834
RS-44 & BREEZE-KM R/B   
1 44909U 19096E   26137.35798005  .00000030  00000+0  78423-4 0  9997
2 44909  82.5235   0.1947 0216797 216.2444 142.3806 12.79748240298400
JILIN-1 KUANFU 01       
1 45016U 20003A   26137.55048110  .00002551  00000+0  15841-3 0  9998
2 45016  97.5036 212.1065 0010912  54.5743 305.6504 15.10536101350707
XINGYUN-2 01            
1 45602U 20028A   26137.62796723  .00001449  00000+0  88924-4 0  9992
2 45602  97.4861 130.6390 0007866 319.6908  40.3738 15.11668524330223
XINGYUN-2 02            
1 45603U 20028B   26137.60123523  .00001612  00000+0  99144-4 0  9991
2 45603  97.5076 144.1330 0011844  26.0532 334.1292 15.11404429330210
HAIYANG-1D              
1 45721U 20036A   26137.62446243 -.00000083  00000+0 -14293-4 0  9995
2 45721  98.4548  79.9707 0001587 223.7100 136.3959 14.34161350310596
M2 PATHFINDER           
1 45727U 20037E   26137.52133058  .00001215  00000+0  91189-4 0  9993
2 45727  97.8162 328.4106 0009927 254.3305 105.6826 15.04532011320884
GAOFEN DUOMO (GFDM)     
1 45856U 20042A   26137.65097106  .00000403  00000+0  64397-4 0  9998
2 45856  97.7768 198.6451 0011213 164.0543 196.1022 14.76833199316506
ZIYUAN 3-03 (ZY 3-03)   
1 45939U 20051A   26137.60061421  .00003509  00000+0  15886-3 0  9994
2 45939  97.2852 206.3115 0006928  65.0381 295.1575 15.21502732322695
NEMO-HD                 
1 46277U 20061F   26137.60964106  .00007718  00000+0  17162-3 0  9998
2 46277  97.1936 199.8831 0002557 117.6456 242.5052 15.43933458317265
NAPA-1                  
1 46320U 20061BA  26137.61729916  .00040305  00000+0  42653-3 0  9998
2 46320  97.2487 210.8847 0001846 140.0809 220.0587 15.64054509316952
JILIN-1 GAOFEN 3E       
1 46457U 20065D   26137.59527145  .00031620  00000+0  38986-3 0  9994
2 46457  97.2282 189.5757 0009900 265.7162  94.2964 15.60081143314985
JILIN-1 GAOFEN 3F       
1 46458U 20065E   26137.57192374  .00027970  00000+0  37518-3 0  9998
2 46458  97.2238 187.0212 0011547 254.3780 105.6202 15.57843594314935
JILIN-1 GAOFEN 3G       
1 46459U 20065F   26137.58768896  .00046988  00000+0  45825-3 0  9998
2 46459  97.2312 193.3853 0012557 157.5705 202.6107 15.65991089315141
JILIN-1 GAOFEN 3H       
1 46460U 20065G   26137.56587677  .00041881  00000+0  45265-3 0  9999
2 46460  97.2256 189.8523 0008853 106.3646 253.8587 15.63460933315095
HAIYANG-2C              
1 46469U 20066A   26137.58508330 -.00000060  00000+0  19042-4 0  9990
2 46469  65.9972 291.4758 0010013 239.9012 120.1064 13.83371972285267
HJ-2A                   
1 46478U 20067A   26137.60278659  .00000913  00000+0  13794-3 0  9995
2 46478  97.8834 216.6955 0003880  28.4775 331.6647 14.76571374303748
HJ-2B                   
1 46479U 20067B   26137.63907536  .00000407  00000+0  65498-4 0  9999
2 46479  97.8897 217.7299 0001314  76.2877 283.8479 14.76514598303752
